{"type": "FeatureCollection", "features": [ {"type": "Feature", "properties": {"norad_id": 32366, "name": "FENGYUN 1C DEB", "group": "fengyun-1c-debris", "lat": -53.8802210125605, "lon": -73.86760294542081, "alt_km": 755.9880118800311, "timestamp": "2025-12-21T03:56:51.121656+00:00", "meta": {"OBJECT_NAME": "FENGYUN 1C DEB", "OBJECT_ID": "1999-025CZK", "EPOCH": "2025-12-17T13:54:40.935744", "MEAN_MOTION": 14.13865958, "ECCENTRICITY": 0.0135504, "INCLINATION": 96.7755, "RA_OF_ASC_NODE": 112.7867, "ARG_OF_PERICENTER": 252.3164, "MEAN_ANOMALY": 106.3182, "EPHEMERIS_TYPE": 0, "CLASSIFICATION_TYPE": "U", "NORAD_CAT_ID": 32366, "ELEMENT_SET_NO": 999, "REV_AT_EPOCH": 93272, "BSTAR": 0.0013067056, "MEAN_MOTION_DOT": 2.675e-05, "MEAN_MOTION_DDOT": 0}, "tle": {"line1": "1 32366U 99025CZK 25351.57964046  .00002675  00000+0  13067-2 0  9990", "line2": "2 32366  96.7755 112.7867 0135504 252.3164 106.3182 14.13865958932728"}}, "geometry": {"type": "Point", "coordinates": [-73.86760294542081, -53.8802210125605]}}, {"type": "Feature", "properties": {"norad_id": 32372, "name": "FENGYUN 1C DEB", "group": "fengyun-1c-debris", "lat": 46.99477060579251, "lon": 61.82965722723249, "alt_km": 1249.5586986187045, "timestamp": "2025-12-21T03:56:51.121667+00:00", "meta": {"OBJECT_NAME": "FENGYUN 1C DEB", "OBJECT_ID": "1999-025CZR", "EPOCH": "2025-12-11T11:21:44.110080", "MEAN_MOTION": 13.35367723, "ECCENTRICITY": 0.04586798, "INCLINATION": 97.3163, "RA_OF_ASC_NODE": 226.9338, "ARG_OF_PERICENTER": 43.4714, "MEAN_ANOMALY": 320.164, "EPHEMERIS_TYPE": 0, "CLASSIFICATION_TYPE": "U", "NORAD_CAT_ID": 32372, "ELEMENT_SET_NO": 999, "REV_AT_EPOCH": 60123, "BSTAR": 0.003543376, "MEAN_MOTION_DOT": 3.249e-05, "MEAN_MOTION_DDOT": 0}, "tle": {"line1": "1 32372U 99025CZR 25345.47342720  .00003249  00000+0  35434-2 0  9998", "line2": "2 32372  97.3163 226.9338 0458679  43.4714 320.1640 13.35367723601231"}}, "geometry": {"type": "Point", "coordinates": [61.82965722723249, 46.99477060579251]}}, {"type": "Feature", "properties": {"norad_id": 32409, "name": "FENGYUN 1C DEB", "group": "fengyun-1c-debris", "lat": 59.98906908238037, "lon": -2.468693922951283, "alt_km": 607.0059225066207, "timestamp": "2025-12-21T03:56:51.121676+00:00", "meta": {"OBJECT_NAME": "FENGYUN 1C DEB", "OBJECT_ID": "1999-025CZV", "EPOCH": "2025-12-07T05:07:54.004800", "MEAN_MOTION": 14.7602828, "ECCENTRICITY": 0.00392582, "INCLINATION": 99.5677, "RA_OF_ASC_NODE": 144.053, "ARG_OF_PERICENTER": 169.8692, "MEAN_ANOMALY": 6.8268, "EPHEMERIS_TYPE": 0, "CLASSIFICATION_TYPE": "U", "NORAD_CAT_ID": 32409, "ELEMENT_SET_NO": 999, "REV_AT_EPOCH": 58757, "BSTAR": 0.00306852, "MEAN_MOTION_DOT": 0.00021404, "MEAN_MOTION_DDOT": 0}, "tle": {"line1": "1 32409U 99025CZV 25341.21381950  .00021404  00000+0  30685-2 0  9991", "line2": "2 32409  99.5677 144.0530 0039258 169.8692   6.8268 14.76028280587578"}}, "geometry": {"type": "Point", "coordinates": [-2.468693922951283, 59.98906908238037]}}, {"type": "Feature", "properties": {"norad_id": 32411, "name": "FENGYUN 1C DEB", "group": "fengyun-1c-debris", "lat": -37.37535171926776, "lon": 86.09130841020776, "alt_km": 928.8640492486848, "timestamp": "2025-12-21T03:56:51.121685+00:00", "meta": {"OBJECT_NAME": "FENGYUN 1C DEB", "OBJECT_ID": "1999-025CZX", "EPOCH": "2025-12-20T11:34:57.567936", "MEAN_MOTION": 14.09824022, "ECCENTRICITY": 0.01238541, "INCLINATION": 98.4301, "RA_OF_ASC_NODE": 271.9568, "ARG_OF_PERICENTER": 354.4553, "MEAN_ANOMALY": 5.524, "EPHEMERIS_TYPE": 0, "CLASSIFICATION_TYPE": "U", "NORAD_CAT_ID": 32411, "ELEMENT_SET_NO": 999, "REV_AT_EPOCH": 65923, "BSTAR": 0.00042639535, "MEAN_MOTION_DOT": 7.64e-06, "MEAN_MOTION_DDOT": 0}, "tle": {"line1": "1 32411U 99025CZX 25354.48261074  .00000764  00000+0  42640-3 0  9992", "line2": "2 32411  98.4301 271.9568 0123854 354.4553   5.5240 14.09824022659231"}}, "geometry": {"type": "Point", "coordinates": [86.09130841020776, -37.37535171926776]}}, {"type": "Feature", "properties": {"norad_id": 32414, "name": "FENGYUN 1C DEB", "group": "fengyun-1c-debris", "lat": -38.28880168103499, "lon": -121.26252986351737, "alt_km": 850.3767123584576, "timestamp": "2025-12-21T03:56:51.121694+00:00", "meta": {"OBJECT_NAME": "FENGYUN 1C DEB", "OBJECT_ID": "1999-025DAA", "EPOCH": "2025-12-18T10:35:05.112960", "MEAN_MOTION": 14.18440722, "ECCENTRICITY": 0.00448942, "INCLINATION": 98.8581, "RA_OF_ASC_NODE": 63.0906, "ARG_OF_PERICENTER": 341.2482, "MEAN_ANOMALY": 18.7038, "EPHEMERIS_TYPE": 0, "CLASSIFICATION_TYPE": "U", "NORAD_CAT_ID": 32414, "ELEMENT_SET_NO": 999, "REV_AT_EPOCH": 93813, "BSTAR": 0.0011211684, "MEAN_MOTION_DOT": 2.294e-05, "MEAN_MOTION_DDOT": 0}, "tle": {"line1": "1 32414U 99025DAA 25352.44103140  .00002294  00000+0  11212-2 0  9998", "line2": "2 32414  98.8581  63.0906 0044894 341.2482  18.7038 14.18440722938136"}}, "geometry": {"type": "Point", "coordinates": [-121.26252986351737, -38.28880168103499]}}, {"type": "Feature", "properties": {"norad_id": 32419, "name": "FENGYUN 1C DEB", "group": "fengyun-1c-debris", "lat": 56.60192948231778, "lon": 121.69902777460314, "alt_km": 945.6097488085607, "timestamp": "2025-12-21T03:56:51.121703+00:00", "meta": {"OBJECT_NAME": "FENGYUN 1C DEB", "OBJECT_ID": "1999-025DAF", "EPOCH": "2025-12-11T15:09:56.013984", "MEAN_MOTION": 14.09908253, "ECCENTRICITY": 0.02839501, "INCLINATION": 97.9459, "RA_OF_ASC_NODE": 281.0334, "ARG_OF_PERICENTER": 32.1797, "MEAN_ANOMALY": 329.6358, "EPHEMERIS_TYPE": 0, "CLASSIFICATION_TYPE": "U", "NORAD_CAT_ID": 32419, "ELEMENT_SET_NO": 999, "REV_AT_EPOCH": 63555, "BSTAR": 0.0013854285, "MEAN_MOTION_DOT": 3.513e-05, "MEAN_MOTION_DDOT": 0}, "tle": {"line1": "1 32419U 99025DAF 25345.63189831  .00003513  00000+0  13854-2 0  9996", "line2": "2 32419  97.9459 281.0334 0283950  32.1797 329.6358 14.09908253635552"}}, "geometry": {"type": "Point", "coordinates": [121.69902777460314, 56.60192948231778]}}, {"type": "Feature", "properties": {"norad_id": 32422, "name": "FENGYUN 1C DEB", "group": "fengyun-1c-debris", "lat": -76.92713558869491, "lon": 161.86520823095907, "alt_km": 695.2333570344153, "timestamp": "2025-12-21T03:56:51.121713+00:00", "meta": {"OBJECT_NAME": "FENGYUN 1C DEB", "OBJECT_ID": "1999-025DAJ", "EPOCH": "2025-12-18T14:28:39.254304", "MEAN_MOTION": 13.98014994, "ECCENTRICITY": 0.02982939, "INCLINATION": 97.8414, "RA_OF_ASC_NODE": 123.2691, "ARG_OF_PERICENTER": 275.9311, "MEAN_ANOMALY": 80.7936, "EPHEMERIS_TYPE": 0, "CLASSIFICATION_TYPE": "U", "NORAD_CAT_ID": 32422, "ELEMENT_SET_NO": 999, "REV_AT_EPOCH": 63215, "BSTAR": 0.00020595213, "MEAN_MOTION_DOT": 3.88e-06, "MEAN_MOTION_DDOT": 0}, "tle": {"line1": "1 32422U 99025DAJ 25352.60323211  .00000388  00000+0  20595-3 0  9995", "line2": "2 32422  97.8414 123.2691 0298293 275.9311  80.7936 13.98014994632151"}}, "geometry": {"type": "Point", "coordinates": [161.86520823095907, -76.92713558869491]}}, {"type": "Feature", "properties": {"norad_id": 32425, "name": "FENGYUN 1C DEB", "group": "fengyun-1c-debris", "lat": 67.26954837910586, "lon": 125.14280602840574, "alt_km": 979.4643704735481, "timestamp": "2025-12-21T03:56:51.121724+00:00", "meta": {"OBJECT_NAME": "FENGYUN 1C DEB", "OBJECT_ID": "1999-025DAM", "EPOCH": "2025-12-12T16:13:12.115488", "MEAN_MOTION": 14.16741504, "ECCENTRICITY": 0.02316015, "INCLINATION": 96.7012, "RA_OF_ASC_NODE": 135.0318, "ARG_OF_PERICENTER": 299.6477, "MEAN_ANOMALY": 58.1818, "EPHEMERIS_TYPE": 0, "CLASSIFICATION_TYPE": "U", "NORAD_CAT_ID": 32425, "ELEMENT_SET_NO": 999, "REV_AT_EPOCH": 69534, "BSTAR": 0.00075748036, "MEAN_MOTION_DOT": 1.938e-05, "MEAN_MOTION_DDOT": 0}, "tle": {"line1": "1 32425U 99025DAM 25346.67583467  .00001938  00000+0  75748-3 0  9991", "line2": "2 32425  96.7012 135.0318 0231601 299.6477  58.1818 14.16741504695342"}}, "geometry": {"type": "Point", "coordinates": [125.14280602840574, 67.26954837910586]}}, {"type": "Feature", "properties": {"norad_id": 32430, "name": "FENGYUN 1C DEB", "group": "fengyun-1c-debris", "lat": -38.88923404681548, "lon": -167.97468628509904, "alt_km": 762.6943715681564, "timestamp": "2025-12-21T03:56:51.121733+00:00", "meta": {"OBJECT_NAME": "FENGYUN 1C DEB", "OBJECT_ID": "1999-025DAS", "EPOCH": "2025-12-20T07:34:23.357568", "MEAN_MOTION": 13.70168085, "ECCENTRICITY": 0.03700703, "INCLINATION": 98.6961, "RA_OF_ASC_NODE": 18.3467, "ARG_OF_PERICENTER": 249.8755, "MEAN_ANOMALY": 106.2222, "EPHEMERIS_TYPE": 0, "CLASSIFICATION_TYPE": "U", "NORAD_CAT_ID": 32430, "ELEMENT_SET_NO": 999, "REV_AT_EPOCH": 91307, "BSTAR": 0.0013984583, "MEAN_MOTION_DOT": 1.957e-05, "MEAN_MOTION_DDOT": 0}, "tle": {"line1": "1 32430U 99025DAS 25354.31554812  .00001957  00000+0  13985-2 0  9994", "line2": "2 32430  98.6961  18.3467 0370070 249.8755 106.2222 13.70168085913073"}}, "geometry": {"type": "Point", "coordinates": [-167.97468628509904, -38.88923404681548]}}, {"type": "Feature", "properties": {"norad_id": 32432, "name": "FENGYUN 1C DEB", "group": "fengyun-1c-debris", "lat": 35.42557829605979, "lon": 25.26589259048618, "alt_km": 767.4604122590936, "timestamp": "2025-12-21T03:56:51.121742+00:00", "meta": {"OBJECT_NAME": "FENGYUN 1C DEB", "OBJECT_ID": "1999-025DAU", "EPOCH": "2025-12-19T22:01:28.238880", "MEAN_MOTION": 14.52565689, "ECCENTRICITY": 0.0172607, "INCLINATION": 98.1702, "RA_OF_ASC_NODE": 29.9168, "ARG_OF_PERICENTER": 283.4491, "MEAN_ANOMALY": 74.752, "EPHEMERIS_TYPE": 0, "CLASSIFICATION_TYPE": "U", "NORAD_CAT_ID": 32432, "ELEMENT_SET_NO": 999, "REV_AT_EPOCH": 70799, "BSTAR": 0.00092211, "MEAN_MOTION_DOT": 4.533e-05, "MEAN_MOTION_DDOT": 0}, "tle": {"line1": "1 32432U 99025DAU 25353.91768795  .00004533  00000+0  92211-3 0  9991", "line2": "2 32432  98.1702  29.9168 0172607 283.4491  74.7520 14.52565689707990"}}, "geometry": {"type": "Point", "coordinates": [25.26589259048618, 35.42557829605979]}}]}